start=new Date('2022-12-19T00:00:00.000Z').valueOf();
sats=[{"SITE":"AFWTR","FILE":"3709623","RCS_SIZE":"LARGE","SEMIMAJOR_AXIS":"6917.887","MEAN_MOTION_DOT":"-0.00000319","BSTAR":"-0.00000192670000","EPHEMERIS_TYPE":"0","EPOCH":"2022-12-18T14:18:07.656480","OBJECT_TYPE":"PAYLOAD","MEAN_ANOMALY":"314.9290","PERIOD":"95.438","REF_FRAME":"TEME","TLE_LINE1":"1 53996U 22125AJ  22352.59592195 -.00000319  00000-0 -19267-5 0  9998","INCLINATION":"53.2198","APOAPSIS":"540.941","MEAN_MOTION":"15.08837730","REV_AT_EPOCH":"1176","NORAD_CAT_ID":"53996","ECCENTRICITY":"0.00017180","LAUNCH_DATE":"2022-10-05","MEAN_ELEMENT_THEORY":"SGP4","OBJECT_NAME":"STARLINK-5131","GP_ID":"220872480","DECAY_DATE":null,"RA_OF_ASC_NODE":"98.1430","ELEMENT_SET_NO":"999","PERIAPSIS":"538.564","CENTER_NAME":"EARTH","COUNTRY_CODE":"US","TLE_LINE2":"2 53996  53.2198  98.1430 0001718  45.1841 314.9290 15.08837730 11762","ARG_OF_PERICENTER":"45.1841","CLASSIFICATION_TYPE":"U","MEAN_MOTION_DDOT":"0.0000000000000","OBJECT_ID":"2022-125AJ","TIME_SYSTEM":"UTC"},{"OBJECT_NAME":"STARLINK-5130","GP_ID":"220871414","DECAY_DATE":null,"ARG_OF_PERICENTER":"34.8392","CLASSIFICATION_TYPE":"U","MEAN_MOTION_DDOT":"0.0000000000000","OBJECT_ID":"2022-125AK","TIME_SYSTEM":"UTC","RA_OF_ASC_NODE":"88.4117","PERIAPSIS":"456.327","ELEMENT_SET_NO":"999","CENTER_NAME":"EARTH","COUNTRY_CODE":"US","TLE_LINE2":"2 53997  53.2172  88.4117 0001921  34.8392 117.2653 15.36105783  1304","EPOCH":"2022-12-18T22:00:00.999936","OBJECT_TYPE":"PAYLOAD","MEAN_ANOMALY":"117.2653","PERIOD":"93.744","SITE":"AFWTR","SEMIMAJOR_AXIS":"6835.775","FILE":"3709623","RCS_SIZE":"LARGE","MEAN_MOTION_DOT":"-0.00913053","BSTAR":"-0.02788400000000","EPHEMERIS_TYPE":"0","REV_AT_EPOCH":"130","NORAD_CAT_ID":"53997","LAUNCH_DATE":"2022-10-05","ECCENTRICITY":"0.00019210","MEAN_ELEMENT_THEORY":"SGP4","REF_FRAME":"TEME","TLE_LINE1":"1 53997U 22125AK  22352.91667824 -.00913053  00000-0 -27884-1 0  9995","INCLINATION":"53.2172","APOAPSIS":"458.953","MEAN_MOTION":"15.36105783"},{"RA_OF_ASC_NODE":"97.2068","ELEMENT_SET_NO":"999","PERIAPSIS":"538.754","CENTER_NAME":"EARTH","COUNTRY_CODE":"US","TLE_LINE2":"2 53998  53.2179  97.2068 0001461  64.8439 295.2704 15.08833611 11794","ARG_OF_PERICENTER":"64.8439","MEAN_MOTION_DDOT":"0.0000000000000","CLASSIFICATION_TYPE":"U","OBJECT_ID":"2022-125AL","TIME_SYSTEM":"UTC","OBJECT_NAME":"STARLINK-5128","GP_ID":"220872057","DECAY_DATE":null,"REF_FRAME":"TEME","TLE_LINE1":"1 53998U 22125AL  22352.78822983 -.00001774  00000-0 -93418-4 0  9997","INCLINATION":"53.2179","APOAPSIS":"540.776","MEAN_MOTION":"15.08833611","REV_AT_EPOCH":"1179","NORAD_CAT_ID":"53998","LAUNCH_DATE":"2022-10-05","ECCENTRICITY":"0.00014610","MEAN_ELEMENT_THEORY":"SGP4","SITE":"AFWTR","FILE":"3709623","RCS_SIZE":"LARGE","SEMIMAJOR_AXIS":"6917.900","MEAN_MOTION_DOT":"-0.00001774","EPHEMERIS_TYPE":"0","BSTAR":"-0.00009341800000","EPOCH":"2022-12-18T18:55:03.057312","OBJECT_TYPE":"PAYLOAD","MEAN_ANOMALY":"295.2704","PERIOD":"95.438"},{"REF_FRAME":"TEME","TLE_LINE1":"1 53999U 22125AM  22352.73577589 -.00000968  00000-0 -42725-4 0  9991","INCLINATION":"53.2213","MEAN_MOTION":"15.08833281","APOAPSIS":"540.682","REV_AT_EPOCH":"1178","LAUNCH_DATE":"2022-10-05","ECCENTRICITY":"0.00013240","NORAD_CAT_ID":"53999","MEAN_ELEMENT_THEORY":"SGP4","SITE":"AFWTR","MEAN_MOTION_DOT":"-0.00000968","FILE":"3709623","SEMIMAJOR_AXIS":"6917.901","RCS_SIZE":"LARGE","EPHEMERIS_TYPE":"0","BSTAR":"-0.00004272500000","EPOCH":"2022-12-18T17:39:31.036896","OBJECT_TYPE":"PAYLOAD","MEAN_ANOMALY":"297.4427","PERIOD":"95.438","RA_OF_ASC_NODE":"97.5950","CENTER_NAME":"EARTH","ELEMENT_SET_NO":"999","PERIAPSIS":"538.850","TLE_LINE2":"2 53999  53.2213  97.5950 0001324  62.6700 297.4427 15.08833281 11780","COUNTRY_CODE":"US","ARG_OF_PERICENTER":"62.6700","MEAN_MOTION_DDOT":"0.0000000000000","CLASSIFICATION_TYPE":"U","OBJECT_ID":"2022-125AM","TIME_SYSTEM":"UTC","GP_ID":"220872270","OBJECT_NAME":"STARLINK-5079","DECAY_DATE":null},{"BSTAR":"-0.02767700000000","EPHEMERIS_TYPE":"0","SITE":"AFWTR","FILE":"3709623","SEMIMAJOR_AXIS":"6835.040","RCS_SIZE":"LARGE","MEAN_MOTION_DOT":"-0.00913458","PERIOD":"93.728","OBJECT_TYPE":"PAYLOAD","EPOCH":"2022-12-18T22:00:00.999936","MEAN_ANOMALY":"108.4232","INCLINATION":"53.2172","APOAPSIS":"457.959","MEAN_MOTION":"15.36353480","REF_FRAME":"TEME","TLE_LINE1":"1 54000U 22125AN  22352.91667824 -.00913458  00000-0 -27677-1 0  9990","NORAD_CAT_ID":"54000","LAUNCH_DATE":"2022-10-05","ECCENTRICITY":"0.00015410","MEAN_ELEMENT_THEORY":"SGP4","REV_AT_EPOCH":"130","DECAY_DATE":null,"OBJECT_NAME":"STARLINK-5088","GP_ID":"220872904","PERIAPSIS":"455.852","ELEMENT_SET_NO":"999","CENTER_NAME":"EARTH","COUNTRY_CODE":"US","TLE_LINE2":"2 54000  53.2172  88.3969 0001541  51.1981 108.4232 15.36353480  1302","RA_OF_ASC_NODE":"88.3969","OBJECT_ID":"2022-125AN","TIME_SYSTEM":"UTC","ARG_OF_PERICENTER":"51.1981","CLASSIFICATION_TYPE":"U","MEAN_MOTION_DDOT":"0.0000000000000"},{"PERIOD":"95.438","MEAN_ANOMALY":"306.9912","EPOCH":"2022-12-18T18:53:40.204032","OBJECT_TYPE":"PAYLOAD","BSTAR":"-0.00001822600000","EPHEMERIS_TYPE":"0","MEAN_MOTION_DOT":"-0.00000578","FILE":"3709623","SEMIMAJOR_AXIS":"6917.913","RCS_SIZE":"LARGE","SITE":"AFWTR","MEAN_ELEMENT_THEORY":"SGP4","ECCENTRICITY":"0.00014790","LAUNCH_DATE":"2022-10-05","NORAD_CAT_ID":"54001","REV_AT_EPOCH":"1179","MEAN_MOTION":"15.08829233","APOAPSIS":"540.801","INCLINATION":"53.2189","TLE_LINE1":"1 54001U 22125AP  22352.78727088 -.00000578  00000-0 -18226-4 0  9998","REF_FRAME":"TEME","DECAY_DATE":null,"GP_ID":"220871844","OBJECT_NAME":"STARLINK-5105","TIME_SYSTEM":"UTC","OBJECT_ID":"2022-125AP","MEAN_MOTION_DDOT":"0.0000000000000","CLASSIFICATION_TYPE":"U","ARG_OF_PERICENTER":"53.1216","TLE_LINE2":"2 54001  53.2189  97.2039 0001479  53.1216 306.9912 15.08829233 11798","COUNTRY_CODE":"US","CENTER_NAME":"EARTH","PERIAPSIS":"538.755","ELEMENT_SET_NO":"999","RA_OF_ASC_NODE":"97.2039"},{"INCLINATION":"53.2159","MEAN_MOTION":"15.39401137","APOAPSIS":"448.678","REF_FRAME":"TEME","TLE_LINE1":"1 54002U 22125AQ  22352.91667824 -.00963777  00000-0 -26559-1 0  9999","LAUNCH_DATE":"2022-10-05","ECCENTRICITY":"0.00011680","NORAD_CAT_ID":"54002","MEAN_ELEMENT_THEORY":"SGP4","REV_AT_EPOCH":"1198","BSTAR":"-0.02655900000000","EPHEMERIS_TYPE":"0","SITE":"AFWTR","MEAN_MOTION_DOT":"-0.00963777","SEMIMAJOR_AXIS":"6826.016","FILE":"3709068","RCS_SIZE":"LARGE","PERIOD":"93.543","OBJECT_TYPE":"PAYLOAD","EPOCH":"2022-12-18T22:00:00.999936","MEAN_ANOMALY":"158.7798","CENTER_NAME":"EARTH","PERIAPSIS":"447.084","ELEMENT_SET_NO":"999","TLE_LINE2":"2 54002  53.2159  88.2678 0001168  79.4041 158.7798 15.39401137 11986","COUNTRY_CODE":"US","RA_OF_ASC_NODE":"88.2678","OBJECT_ID":"2022-125AQ","TIME_SYSTEM":"UTC","ARG_OF_PERICENTER":"79.4041","MEAN_MOTION_DDOT":"0.0000000000000","CLASSIFICATION_TYPE":"U","DECAY_DATE":null,"OBJECT_NAME":"STARLINK-5109","GP_ID":"220833215"},{"TIME_SYSTEM":"UTC","OBJECT_ID":"2022-125AR","MEAN_MOTION_DDOT":"0.0000000000000","CLASSIFICATION_TYPE":"U","ARG_OF_PERICENTER":"31.2740","TLE_LINE2":"2 54003  53.2210  98.1194 0001811  31.2740 328.8360 15.08842261 11815","COUNTRY_CODE":"US","CENTER_NAME":"EARTH","PERIAPSIS":"538.486","ELEMENT_SET_NO":"999","RA_OF_ASC_NODE":"98.1194","DECAY_DATE":null,"GP_ID":"220833723","OBJECT_NAME":"STARLINK-5114","MEAN_ELEMENT_THEORY":"SGP4","LAUNCH_DATE":"2022-10-05","ECCENTRICITY":"0.00018110","NORAD_CAT_ID":"54003","REV_AT_EPOCH":"1181","MEAN_MOTION":"15.08842261","APOAPSIS":"540.991","INCLINATION":"53.2210","TLE_LINE1":"1 54003U 22125AR  22352.59223182 -.00000729  00000-0 -27694-4 0  9992","REF_FRAME":"TEME","PERIOD":"95.437","MEAN_ANOMALY":"328.8360","OBJECT_TYPE":"PAYLOAD","EPOCH":"2022-12-18T14:12:48.829248","EPHEMERIS_TYPE":"0","BSTAR":"-0.00002769400000","MEAN_MOTION_DOT":"-0.00000729","RCS_SIZE":"LARGE","FILE":"3709068","SEMIMAJOR_AXIS":"6917.873","SITE":"AFWTR"},{"MEAN_MOTION_DOT":"-0.00001101","FILE":"3709623","RCS_SIZE":"LARGE","SEMIMAJOR_AXIS":"6917.910","SITE":"AFWTR","BSTAR":"-0.00005113400000","EPHEMERIS_TYPE":"0","MEAN_ANOMALY":"311.1109","EPOCH":"2022-12-18T17:07:40.995552","OBJECT_TYPE":"PAYLOAD","PERIOD":"95.438","TLE_LINE1":"1 54004U 22125AS  22352.71366893 -.00001101  00000-0 -51134-4 0  9995","REF_FRAME":"TEME","MEAN_MOTION":"15.08830257","APOAPSIS":"540.883","INCLINATION":"53.2178","REV_AT_EPOCH":"1178","MEAN_ELEMENT_THEORY":"SGP4","LAUNCH_DATE":"2022-10-05","ECCENTRICITY":"0.00016020","NORAD_CAT_ID":"54004","GP_ID":"220872481","OBJECT_NAME":"STARLINK-5129","DECAY_DATE":null,"RA_OF_ASC_NODE":"97.4537","TLE_LINE2":"2 54004  53.2178  97.4537 0001602  49.0021 311.1109 15.08830257 11783","COUNTRY_CODE":"US","CENTER_NAME":"EARTH","ELEMENT_SET_NO":"999","PERIAPSIS":"538.667","MEAN_MOTION_DDOT":"0.0000000000000","CLASSIFICATION_TYPE":"U","ARG_OF_PERICENTER":"49.0021","TIME_SYSTEM":"UTC","OBJECT_ID":"2022-125AS"},{"DECAY_DATE":null,"OBJECT_NAME":"STARLINK-5135","GP_ID":"220871415","OBJECT_ID":"2022-125AT","TIME_SYSTEM":"UTC","ARG_OF_PERICENTER":"54.3860","CLASSIFICATION_TYPE":"U","MEAN_MOTION_DDOT":"0.0000000000000","CENTER_NAME":"EARTH","PERIAPSIS":"538.660","ELEMENT_SET_NO":"999","TLE_LINE2":"2 54005  53.2183  97.4777 0001611  54.3860 305.7282 15.08830545 11787","COUNTRY_CODE":"US","RA_OF_ASC_NODE":"97.4777","PERIOD":"95.438","OBJECT_TYPE":"PAYLOAD","EPOCH":"2022-12-18T17:12:58.614912","MEAN_ANOMALY":"305.7282","BSTAR":"-0.00002146800000","EPHEMERIS_TYPE":"0","SITE":"AFWTR","MEAN_MOTION_DOT":"-0.00000630","RCS_SIZE":"LARGE","FILE":"3709623","SEMIMAJOR_AXIS":"6917.909","ECCENTRICITY":"0.00016110","LAUNCH_DATE":"2022-10-05","NORAD_CAT_ID":"54005","MEAN_ELEMENT_THEORY":"SGP4","REV_AT_EPOCH":"1178","INCLINATION":"53.2183","MEAN_MOTION":"15.08830545","APOAPSIS":"540.889","REF_FRAME":"TEME","TLE_LINE1":"1 54005U 22125AT  22352.71734508 -.00000630  00000-0 -21468-4 0  9991"}];
